[
    {
        "Altitude(m)": 604969.0892104658,
        "Argument of Periapsis(deg)": 0.0,
        "Eccentricity": 0.0,
        "Inclination(deg)": 60.0,
        "Latitude(deg)": -0.09272257348425837,
        "Longitude(deg)": -45.022472271762794,
        "Mean Anomaly(deg)": 0.0,
        "RAAN(deg)": 55.00000000000001,
        "Satellite Name": "Test1 242",
        "Satellite Number": 242,
        "Semi-Major Axis(m)": 6980739.136638005,
        "Time(s)": 0
    },
    {
        "Altitude(m)": 604900.028276824,
        "Argument of Periapsis(deg)": 0.00010418945913296404,
        "Eccentricity": 0.0,
        "Inclination(deg)": 60.0,
        "Latitude(deg)": 0.44770368362130214,
        "Longitude(deg)": -44.75434996378331,
        "Mean Anomaly(deg)": 0.6201061454618275,
        "RAAN(deg)": 54.999579950860266,
        "Satellite Name": "Test1 242",
        "Satellite Number": 242,
        "Semi-Major Axis(m)": 6980739.136638005,
        "Time(s)": 10
    }
]